*******************************************************************************
 Revised: Sep 29, 2017              Iocaste  / (Jupiter)                    524

 Recently discovered irregular Jovian satellite.
*******************************************************************************
 
 
*******************************************************************************
Ephemeris / WWW_USER Sun Nov 12 11:12:04 2017 Pasadena, USA      / Horizons    
*******************************************************************************
Target body name: Iocaste (524)                   {source: jup341}
Center body name: Solar System Barycenter (0)     {source: DE431mx}
Center-site name: BODY CENTER
*******************************************************************************
Start time      : A.D. 2017-Jul-10 00:00:00.0000 TDB
Stop  time      : A.D. 2020-Aug-13 00:00:00.0000 TDB
Step-size       : 1440 minutes
*******************************************************************************
Center geodetic : 0.00000000,0.00000000,0.0000000 {E-lon(deg),Lat(deg),Alt(km)}
Center cylindric: 0.00000000,0.00000000,0.0000000 {E-lon(deg),Dxy(km),Dz(km)}
Center radii    : (undefined)                                                  
Output units    : KM-S                                                         
Output type     : GEOMETRIC cartesian states
Output format   : 3 (position, velocity, LT, range, range-rate)
Reference frame : ICRF/J2000.0                                                 
Coordinate systm: Ecliptic and Mean Equinox of Reference Epoch                 
*******************************************************************************
            JDTDB,            Calendar Date (TDB),                      X,                      Y,                      Z,                     VX,                     VY,                     VZ,                     LT,                     RG,                     RR,
**************************************************************************************************************************************************************************************************************************************************************************
$$SOE
2459046.500000000, A.D. 2020-Jul-16 00:00:00.0000,  3.107334716808563E+08, -6.984667532991765E+08, -1.548414288841751E+07,  1.305144148141240E+01,  4.335426155961412E+00,  2.343383996360435E-01,  2.550513293647014E+03,  7.646246494641140E+08,  1.338879360074771E+00,
2459047.500000000, A.D. 2020-Jul-17 00:00:00.0000,  3.118603187841761E+08, -6.980917280944839E+08, -1.546361147875354E+07,  1.303296878258252E+01,  4.345718320800716E+00,  2.409222123430554E-01,  2.550899751696683E+03,  7.647405066727383E+08,  1.342978762614442E+00,
2459048.500000000, A.D. 2020-Jul-18 00:00:00.0000,  3.129855663662989E+08, -6.977158122271403E+08, -1.544251213503164E+07,  1.301441552114983E+01,  4.356043340055577E+00,  2.474850215395046E-01,  2.551287372417020E+03,  7.648567124412595E+08,  1.346947851151512E+00,
2459049.500000000, A.D. 2020-Jul-19 00:00:00.0000,  3.141092074647071E+08, -6.973390028601638E+08, -1.542084667188573E+07,  1.299578165105148E+01,  4.366401177868967E+00,  2.540268285917984E-01,  2.551676118229338E+03,  7.649732555038717E+08,  1.350786468840262E+00,
2459050.500000000, A.D. 2020-Jul-20 00:00:00.0000,  3.152312351125441E+08, -6.969612971590607E+08, -1.539861690403515E+07,  1.297706711917066E+01,  4.376791812620610E+00,  2.605476290407323E-01,  2.552065951507736E+03,  7.650901245806129E+08,  1.354494445263608E+00,
2459051.500000000, A.D. 2020-Jul-21 00:00:00.0000,  3.163516423382053E+08, -6.965826922907677E+08, -1.537582464686584E+07,  1.295827186847639E+01,  4.387215231289889E+00,  2.670474129274898E-01,  2.552456834575982E+03,  7.652073083764329E+08,  1.358071602841646E+00,
2459052.500000000, A.D. 2020-Jul-22 00:00:00.0000,  3.174704221648730E+08, -6.962031854232028E+08, -1.535247171664315E+07,  1.293939583472434E+01,  4.397671424276432E+00,  2.735261702969516E-01,  2.552848729706146E+03,  7.653247955807831E+08,  1.361517760049179E+00,
2459053.500000000, A.D. 2020-Jul-23 00:00:00.0000,  3.185875676098236E+08, -6.958227737247787E+08, -1.532855993055156E+07,  1.292043894595904E+01,  4.408160391150498E+00,  2.799838886943777E-01,  2.553241599116786E+03,  7.654425748670719E+08,  1.364832725974594E+00,
2459054.500000000, A.D. 2020-Jul-24 00:00:00.0000,  3.197030716839560E+08, -6.954414543633902E+08, -1.530409110718417E+07,  1.290140112735464E+01,  4.418682143503654E+00,  2.864205476826294E-01,  2.553635404969854E+03,  7.655606348917381E+08,  1.368016299826867E+00,
2459055.500000000, A.D. 2020-Jul-25 00:00:00.0000,  3.208169273916429E+08, -6.950592245057954E+08, -1.527906706709948E+07,  1.288228230184155E+01,  4.429236693726263E+00,  2.928361240878927E-01,  2.554030109369255E+03,  7.656789642938175E+08,  1.371068281290934E+00,
2459056.500000000, A.D. 2020-Jul-26 00:00:00.0000,  3.219291277301817E+08, -6.946760813178672E+08, -1.525348963260049E+07,  1.286308238079106E+01,  4.439824051976953E+00,  2.992306012004518E-01,  2.554425674361418E+03,  7.657975516951170E+08,  1.373988469144529E+00,
2459057.500000000, A.D. 2020-Jul-27 00:00:00.0000,  3.230396656884805E+08, -6.942920219638532E+08, -1.522736062739968E+07,  1.284380125972412E+01,  4.450444249904290E+00,  3.056039600871270E-01,  2.554822061931777E+03,  7.659163856991558E+08,  1.376776638007452E+00,
2459058.500000000, A.D. 2020-Jul-28 00:00:00.0000,  3.241485342463470E+08, -6.939070436045443E+08, -1.520068187732440E+07,  1.282443883660986E+01,  4.461097324283514E+00,  3.119561733841882E-01,  2.555219233998831E+03,  7.660354548893868E+08,  1.379432560983225E+00,
2459059.500000000, A.D. 2020-Jul-29 00:00:00.0000,  3.252557263749855E+08, -6.935211433992416E+08, -1.517345521003613E+07,  1.280499500298238E+01,  4.471783303419288E+00,  3.182872190257706E-01,  2.555617152421331E+03,  7.661547478313515E+08,  1.381956017941903E+00,
2459060.500000000, A.D. 2020-Jul-30 00:00:00.0000,  3.263612350343493E+08, -6.931343185009253E+08, -1.514568245583642E+07,  1.278546963798488E+01,  4.482502254727597E+00,  3.245970611696611E-01,  2.556015778980539E+03,  7.662742530673603E+08,  1.384346750235417E+00,
2459061.500000000, A.D. 2020-Jul-31 00:00:00.0000,  3.274650531757520E+08, -6.927465660586884E+08, -1.511736544857696E+07,  1.276586260482349E+01,  4.493254233031769E+00,  3.308856781073348E-01,  2.556415075391881E+03,  7.663939591199872E+08,  1.386604505421760E+00,
2459062.500000000, A.D. 2020-Aug-01 00:00:00.0000,  3.285671737373016E+08, -6.923578832161670E+08, -1.508850602354333E+07,  1.274617379144682E+01,  4.504039310542321E+00,  3.371530175228861E-01,  2.556815003294122E+03,  7.665138544888228E+08,  1.388729028289773E+00,
2459063.500000000, A.D. 2020-Aug-02 00:00:00.0000,  3.296675896477346E+08, -6.919682671106079E+08, -1.505910602100089E+07,  1.272640306214780E+01,  4.514857556169679E+00,  3.433990421445154E-01,  2.557215524252762E+03,  7.666339276514943E+08,  1.390720058102304E+00,
2459064.500000000, A.D. 2020-Aug-03 00:00:00.0000,  3.307662938229201E+08, -6.915777148728498E+08, -1.502916728395644E+07,  1.270655026654982E+01,  4.525709052431147E+00,  3.496237156681827E-01,  2.557616599755381E+03,  7.667541670622679E+08,  1.392577317269002E+00,
2459065.500000000, A.D. 2020-Aug-04 00:00:00.0000,  3.318632791661787E+08, -6.911862236260960E+08, -1.499869165929383E+07,  1.268661526144352E+01,  4.536593890718200E+00,  3.558269881285918E-01,  2.558018191208968E+03,  7.668745611512505E+08,  1.394300525300278E+00,
2459066.500000000, A.D. 2020-Aug-05 00:00:00.0000,  3.329585385679438E+08, -6.907937904856164E+08, -1.496768099804130E+07,  1.266659788940347E+01,  4.547512164081190E+00,  3.620088150186882E-01,  2.558420259939070E+03,  7.669950983241327E+08,  1.395889395716000E+00,
2459067.500000000, A.D. 2020-Aug-06 00:00:00.0000,  3.340520649043849E+08, -6.904004125582024E+08, -1.493613715494397E+07,  1.264649797981046E+01,  4.558463977651328E+00,  3.681691524016699E-01,  2.558822767186623E+03,  7.671157669612395E+08,  1.397343627093388E+00,
2459068.500000000, A.D. 2020-Aug-07 00:00:00.0000,  3.351438510368327E+08, -6.900060869408324E+08, -1.490406198896399E+07,  1.262631536110670E+01,  4.569449452770099E+00,  3.743079458573313E-01,  2.559225674103632E+03,  7.672365554162349E+08,  1.398662904867458E+00,
2459069.500000000, A.D. 2020-Aug-08 00:00:00.0000,  3.362338898117995E+08, -6.896108107195930E+08, -1.487145736413971E+07,  1.260604986067342E+01,  4.580468718585792E+00,  3.804251338269913E-01,  2.559628941750490E+03,  7.673574520153182E+08,  1.399846908812759E+00,
2459070.500000000, A.D. 2020-Aug-09 00:00:00.0000,  3.373221740605620E+08, -6.892145809692845E+08, -1.483832514983928E+07,  1.258570129762199E+01,  4.591521907512037E+00,  3.865206550508142E-01,  2.560032531094691E+03,  7.674784450568386E+08,  1.400895313818344E+00,
2459071.500000000, A.D. 2020-Aug-10 00:00:00.0000,  3.384086965983930E+08, -6.888173947529230E+08, -1.480466722076908E+07,  1.256526948329939E+01,  4.602609161203694E+00,  3.925944460338555E-01,  2.560436403008694E+03,  7.675995228106550E+08,  1.401807784739619E+00,
2459072.500000000, A.D. 2020-Aug-11 00:00:00.0000,  3.394934502241363E+08, -6.884192491207503E+08, -1.477048545743102E+07,  1.254475422643511E+01,  4.613730632946630E+00,  3.986464360517648E-01,  2.560840518266831E+03,  7.677206735172071E+08,  1.402583976602077E+00,
2459073.500000000, A.D. 2020-Aug-12 00:00:00.0000,  3.405764277198896E+08, -6.880201411095734E+08, -1.473578174656156E+07,  1.252415532897659E+01,  4.624886478864549E+00,  4.046765533742414E-01,  2.561244837543356E+03,  7.678418853869334E+08,  1.403223540529170E+00,
2459074.500000000, A.D. 2020-Aug-13 00:00:00.0000,  3.416576218499901E+08, -6.876200677426330E+08, -1.470055798085085E+07,  1.250347257729574E+01,  4.636076859515435E+00,  4.106847313643920E-01,  2.561649321411004E+03,  7.679631465998367E+08,  1.403726118229756E+00,
